OBJECT_NAME,OBJECT_ID,EPOCH,MEAN_MOTION,ECCENTRICITY,INCLINATION,RA_OF_ASC_NODE,ARG_OF_PERICENTER,MEAN_ANOMALY,EPHEMERIS_TYPE,CLASSIFICATION_TYPE,NORAD_CAT_ID,ELEMENT_SET_NO,REV_AT_EPOCH,BSTAR,MEAN_MOTION_DOT,MEAN_MOTION_DDOT
JUPITER 3 (ECHOSTAR 24),2023-108A,2026-07-06T11:23:08.236896,1.00270196,.00012679,0.0228,35.0419,66.6633,258.3090,0,U,57479,999,1083,0,0,0
GALAXY 37 (G-37),2023-112A,2026-07-07T16:33:52.255296,1.00272376,.0001845,0.0190,36.5793,77.8615,292.6849,0,U,57493,999,1074,0,.63E-6,0
LUDI TANCE-4 01A,2023-120A,2026-07-07T00:28:58.920960,1.00265129,.00016469,15.0918,193.4829,25.1906,162.9772,0,U,57624,999,1074,0,-.154E-5,0
TJS-10,2023-169A,2026-07-07T17:36:31.374144,1.00267348,.0004445,2.5940,80.2499,108.6074,93.3417,0,U,58204,999,974,0,-.234E-5,0
ZHONGXING-6E,2023-172A,2026-07-07T19:25:45.379200,1.00265739,.0002166,0.0184,39.6823,69.7427,223.2814,0,U,58253,999,986,0,0,0
YAOGAN-41,2023-197A,2026-07-07T21:10:27.665760,1.00269963,.0014343,3.0926,313.4423,197.7129,215.5096,0,U,58582,999,953,0,-.345E-5,0
OVZON-3,2024-003A,2026-07-07T17:27:09.769824,1.00271499,.0000128,0.0088,160.0149,111.1152,336.0406,0,U,58698,999,765,0,.67E-6,0
INSAT-3DS,2024-033A,2026-07-07T17:33:31.661280,1.00272405,.000109,0.0828,95.4405,21.1281,154.5766,0,U,58990,999,4727,0,-.141E-5,0
MERAH PUTIH 2,2024-035A,2026-07-07T17:42:23.309856,1.00268300,.0000944,0.0222,42.9408,77.3403,183.9734,0,U,58995,999,879,0,0,0
TJS-11,2024-037A,2026-07-07T21:07:27.952896,1.00265632,.0002914,4.1731,327.3207,134.9228,253.0161,0,U,59020,999,879,0,-.347E-5,0
HULIANWAN GAOGUI-01 (HG-01),2024-040A,2026-07-07T17:19:40.488096,1.00267155,.0001823,0.0717,331.9401,76.0588,171.2546,0,U,59069,999,753,0,.171E-5,0
EUTELSAT 36D,2024-059A,2026-07-07T17:20:17.930400,1.00271956,.0000237,0.0035,119.6588,88.6780,13.2794,0,U,59346,999,835,0,.171E-5,0
PAKSAT-MM1,2024-104A,2026-07-06T17:23:50.112384,1.00266945,.00022641,0.0390,182.9642,274.6834,126.2036,0,U,59915,999,772,0,.169E-5,0
ASTRA 1P (SES-24),2024-115A,2026-07-07T00:09:00.834624,1.00252500,.0001715,0.0595,334.6096,269.2406,62.5899,0,U,60086,999,739,0,.133E-5,0
GOES 19,2024-119A,2026-07-07T15:05:50.886816,1.00271713,.0000468,0.0305,235.5803,309.4803,251.8029,0,U,60133,999,716,0,-.233E-5,0
ZHONGXING-3A,2024-122A,2026-07-07T15:56:10.737024,1.00268796,.0001836,0.0330,133.7676,21.5491,110.9046,0,U,60179,999,751,0,-.298E-5,0
TURKSAT 6A,2024-127A,2026-07-07T05:23:26.431008,1.00272408,.00027741,0.0432,192.3892,325.3714,250.2909,0,U,60233,999,721,0,.161E-5,0
HULIANWAN GAOGUI-02 (HG-02),2024-135A,2026-07-06T21:21:51.277248,1.00266706,.00067179,0.0453,354.0269,15.3677,28.9466,0,U,60327,999,769,0,-.16E-5,0
ZHONGXING-4A,2024-151A,2026-07-07T17:43:53.166720,1.00271691,.0000182,1.2642,270.5674,261.0076,138.3288,0,U,60606,999,696,0,-.346E-5,0
HULIANWAN GAOGUI-03 (HG-03),2024-181A,2026-07-07T20:13:25.809312,1.00273546,.0001256,0.0489,357.9113,88.7434,65.3662,0,U,61503,999,703,0,-.226E-5,0
DSN-3 (KIRAMEKI-3),2024-198A,2026-07-07T17:51:14.961024,1.00269652,.0000943,0.0295,273.8079,229.6035,194.1592,0,U,61733,999,612,0,-.235E-5,0
KOREASAT 6A,2024-206A,2026-07-07T17:43:08.237856,1.00271889,.0000779,0.0187,267.0513,180.0217,220.4268,0,U,61910,999,604,0,-.347E-5,0
OPTUS-X (ADS-01),2024-212A,2026-07-07T17:54:44.627040,1.00271022,.0002384,0.0188,355.8774,152.2539,202.6726,0,U,62006,999,596,0,-.128E-5,0
GSAT-N2 (GSAT-20),2024-214A,2026-07-07T08:56:03.887808,1.00272872,.00018869,0.0389,97.5354,344.6785,45.1105,0,U,62028,999,610,0,-.5E-7,0
SXM-9,2024-234A,2026-07-07T15:03:13.637952,1.00270805,.0004876,0.0182,328.9932,348.9531,108.3077,0,U,62259,999,577,0,-.19E-5,0
TJS-12,2024-246A,2026-07-07T19:34:37.030368,1.00271239,.0001919,0.6280,301.1599,101.2714,323.5631,0,U,62374,999,577,0,-.215E-5,0
NUVIEW ALPHA,2024-252B,2026-07-07T13:21:08.182080,1.00270655,.0001067,0.0444,25.9071,38.5576,338.2398,0,U,62455,999,402,0,-.2E-5,0
AGILA,2024-252C,2026-07-07T17:53:29.745888,1.00271371,.0001141,0.0574,125.6847,15.2618,205.2865,0,U,62456,999,536,0,-.167E-5,0
NUVIEW BRAVO,2024-252D,2026-07-07T07:34:02.694144,1.00272280,.00017067,0.0676,165.2959,349.4390,160.9561,0,U,62457,999,399,0,-.2E-5,0
THURAYA-4,2025-001A,2026-07-07T17:22:47.690112,1.00273116,.000006,0.0175,66.4354,195.8556,328.3936,0,U,62483,999,438,0,.154E-5,0
SHIJIAN-25 (SJ-25),2025-002A,2026-07-07T15:56:54.039840,1.00268764,.0052109,5.1585,61.0296,174.9674,56.1711,0,U,62485,999,556,0,-.338E-5,0
TJS-14,2025-017A,2026-07-07T20:40:41.903904,1.00273106,.0001629,0.7384,297.0434,291.9907,25.3497,0,U,62804,999,547,0,.131E-5,0
