JUPITER 3 (ECHOSTAR 24) 
1 57479U 23108A   26187.47440089  .00000000  00000+0  00000+0 0  9994
2 57479   0.0228  35.0419 0001267  66.6633 258.3090  1.00270196 10839
GALAXY 37 (G-37)        
1 57493U 23112A   26188.69018814  .00000063  00000+0  00000+0 0  9996
2 57493   0.0190  36.5793 0001845  77.8615 292.6849  1.00272376 10745
LUDI TANCE-4 01A        
1 57624U 23120A   26188.02012640 -.00000154  00000+0  00000+0 0  9991
2 57624  15.0918 193.4829 0001646  25.1906 162.9772  1.00265129 10748
TJS-10                  
1 58204U 23169A   26188.73369646 -.00000234  00000+0  00000+0 0  9997
2 58204   2.5940  80.2499 0004445 108.6074  93.3417  1.00267348  9744
ZHONGXING-6E            
1 58253U 23172A   26188.80955300  .00000000  00000+0  00000+0 0  9991
2 58253   0.0184  39.6823 0002166  69.7427 223.2814  1.00265739  9867
YAOGAN-41               
1 58582U 23197A   26188.88226465 -.00000345  00000+0  00000+0 0  9997
2 58582   3.0926 313.4423 0014343 197.7129 215.5096  1.00269963  9532
OVZON-3                 
1 58698U 24003A   26188.72719641  .00000067  00000+0  00000+0 0  9998
2 58698   0.0088 160.0149 0000128 111.1152 336.0406  1.00271499  7651
INSAT-3DS               
1 58990U 24033A   26188.73161645 -.00000141  00000+0  00000+0 0  9996
2 58990   0.0828  95.4405 0001090  21.1281 154.5766  1.00272405 47278
MERAH PUTIH 2           
1 58995U 24035A   26188.73776979  .00000000  00000+0  00000+0 0  9998
2 58995   0.0222  42.9408 0000944  77.3403 183.9734  1.00268300  8791
TJS-11                  
1 59020U 24037A   26188.88018464 -.00000347  00000+0  00000+0 0  9999
2 59020   4.1731 327.3207 0002914 134.9228 253.0161  1.00265632  8790
HULIANWAN GAOGUI-01 (H*)
1 59069U 24040A   26188.72199639  .00000171  00000+0  00000+0 0  9997
2 59069   0.0717 331.9401 0001823  76.0588 171.2546  1.00267155  7533
EUTELSAT 36D            
1 59346U 24059A   26188.72242975  .00000171  00000+0  00000+0 0  9997
2 59346   0.0035 119.6588 0000237  88.6780  13.2794  1.00271956  8357
PAKSAT-MM1              
1 59915U 24104A   26187.72488556  .00000169  00000+0  00000+0 0  9993
2 59915   0.0390 182.9642 0002264 274.6834 126.2036  1.00266945  7722
ASTRA 1P (SES-24)       
1 60086U 24115A   26188.00625966  .00000133  00000+0  00000+0 0  9997
2 60086   0.0595 334.6096 0001715 269.2406  62.5899  1.00252500  7398
GOES 19                 
1 60133U 24119A   26188.62906119 -.00000233  00000+0  00000+0 0  9996
2 60133   0.0305 235.5803 0000468 309.4803 251.8029  1.00271713  7167
ZHONGXING-3A            
1 60179U 24122A   26188.66401316 -.00000298  00000+0  00000+0 0  9994
2 60179   0.0330 133.7676 0001836  21.5491 110.9046  1.00268796  7517
TURKSAT 6A              
1 60233U 24127A   26188.22461147  .00000161  00000+0  00000+0 0  9998
2 60233   0.0432 192.3892 0002774 325.3714 250.2909  1.00272408  7215
HULIANWAN GAOGUI-02 (H*)
1 60327U 24135A   26187.89017682 -.00000160  00000+0  00000+0 0  9994
2 60327   0.0453 354.0269 0006717  15.3677  28.9466  1.00266706  7696
ZHONGXING-4A            
1 60606U 24151A   26188.73880980 -.00000346  00000+0  00000+0 0  9991
2 60606   1.2642 270.5674 0000182 261.0076 138.3288  1.00271691  6960
HULIANWAN GAOGUI-03 (H*)
1 61503U 24181A   26188.84265983 -.00000226  00000+0  00000+0 0  9990
2 61503   0.0489 357.9113 0001256  88.7434  65.3662  1.00273546  7031
DSN-3 (KIRAMEKI-3)      
1 61733U 24198A   26188.74392316 -.00000235  00000+0  00000+0 0  9993
2 61733   0.0295 273.8079 0000943 229.6035 194.1592  1.00269652  6128
KOREASAT 6A             
1 61910U 24206A   26188.73828979 -.00000347  00000+0  00000+0 0  9992
2 61910   0.0187 267.0513 0000779 180.0217 220.4268  1.00271889  6041
OPTUS-X (ADS-01)        
1 62006U 24212A   26188.74634985 -.00000128  00000+0  00000+0 0  9996
2 62006   0.0188 355.8774 0002384 152.2539 202.6726  1.00271022  5966
GSAT-N2 (GSAT-20)       
1 62028U 24214A   26188.37226722 -.00000005  00000+0  00000+0 0  9991
2 62028   0.0389  97.5354 0001886 344.6785  45.1105  1.00272872  6105
SXM-9                   
1 62259U 24234A   26188.62724118 -.00000190  00000+0  00000+0 0  9994
2 62259   0.0182 328.9932 0004876 348.9531 108.3077  1.00270805  5779
TJS-12                  
1 62374U 24246A   26188.81570637 -.00000215  00000+0  00000+0 0  9999
2 62374   0.6280 301.1599 0001919 101.2714 323.5631  1.00271239  5771
NUVIEW ALPHA            
1 62455U 24252B   26188.55634470 -.00000200  00000+0  00000+0 0  9997
2 62455   0.0444  25.9071 0001067  38.5576 338.2398  1.00270655  4026
AGILA                   
1 62456U 24252C   26188.74548317 -.00000167  00000+0  00000+0 0  9995
2 62456   0.0574 125.6847 0001141  15.2618 205.2865  1.00271371  5368
NUVIEW BRAVO            
1 62457U 24252D   26188.31530896 -.00000200  00000+0  00000+0 0  9990
2 62457   0.0676 165.2959 0001706 349.4390 160.9561  1.00272280  3999
THURAYA-4               
1 62483U 25001A   26188.72416308  .00000154  00000+0  00000+0 0  9995
2 62483   0.0175  66.4354 0000060 195.8556 328.3936  1.00273116  4381
SHIJIAN-25 (SJ-25)      
1 62485U 25002A   26188.66451435 -.00000338  00000+0  00000+0 0  9996
2 62485   5.1585  61.0296 0052109 174.9674  56.1711  1.00268764  5561
TJS-14                  
1 62804U 25017A   26188.86159611  .00000131  00000+0  00000+0 0  9990
2 62804   0.7384 297.0434 0001629 291.9907  25.3497  1.00273106  5474
